IRIDIUM 155             
1 43573U 18061E   25139.75618544  .00000033  00000+0  47221-5 0  9994
2 43573  86.4003 221.0413 0002474 101.9821 258.1652 14.34216310356971
IRIDIUM 154             
1 43574U 18061F   25139.45808436  .00000104  00000+0  29907-4 0  9992
2 43574  86.4008 221.2798 0002340  95.6610 264.4853 14.34218102356976
IRIDIUM 163             
1 43575U 18061G   25139.50882501  .00000014  00000+0 -21870-5 0  9997
2 43575  86.4007 221.1864 0002069  99.2654 260.8775 14.34217646356958
IRIDIUM 156             
1 43576U 18061H   25139.76252983  .00000002  00000+0 -62986-5 0  9991
2 43576  86.4007 221.0873 0002535 100.3756 259.7726 14.34217555356977
IRIDIUM 164             
1 43577U 18061J   25139.74350169  .00000021  00000+0  32983-6 0  9990
2 43577  86.4006 221.1293 0002498  90.0548 270.0934 14.34217726357020
IRIDIUM 159             
1 43578U 18061K   25139.78155649  .00000016  00000+0 -12370-5 0  9993
2 43578  86.4006 221.0586 0002140  90.4229 269.7212 14.34217848356993
IRIDIUM 180             
1 43922U 19002A   25139.78105233  .00000056  00000+0  12964-4 0  9997
2 43922  86.3979 158.0451 0002257  93.0803 267.0651 14.34217710332642
IRIDIUM 176             
1 43923U 19002B   25139.55800905  .00000368  00000+0  54481-4 0  9997
2 43923  86.6107 158.1343 0002338 107.3264 252.8209 14.72250694341337
IRIDIUM 168             
1 43924U 19002C   25139.77470981  .00000017  00000+0 -11075-5 0  9994
2 43924  86.3988 158.1138 0002224  91.6760 268.4691 14.34217312332587
IRIDIUM 173             
1 43925U 19002D   25139.55271877  .00000030  00000+0  36301-5 0  9997
2 43925  86.3979 158.1118 0002241  95.4852 264.6600 14.34217482332530
IRIDIUM 169             
1 43926U 19002E   25139.49702829  .00000321  00000+0  98553-4 0  9996
2 43926  86.4270 189.7073 0003039 121.8427 238.3067 14.38608554333628
IRIDIUM 172             
1 43927U 19002F   25139.75568102  .00000040  00000+0  72827-5 0  9995
2 43927  86.3979 158.0338 0002006  89.0571 271.0854 14.34217328332577
IRIDIUM 175             
1 43928U 19002G   25140.16461480  .00001069  00000+0  16549-3 0  9993
2 43928  86.1480 111.9916 0003477  92.2471 267.9144 14.72250436341419
IRIDIUM 171             
1 43929U 19002H   25139.80642401 -.00000024  00000+0 -15743-4 0  9995
2 43929  86.3994 158.2749 0002581  88.1960 271.9531 14.34216863332578
IRIDIUM 170             
1 43930U 19002J   25139.49623207  .00000370  00000+0  54817-4 0  9992
2 43930  86.6106 158.1650 0002766  98.6971 261.4559 14.72254906341331
IRIDIUM 167             
1 43931U 19002K   25139.59077544  .00000009  00000+0 -38077-5 0  9992
2 43931  86.3985 158.1214 0002680  93.6289 266.5213 14.34217353332541
IRIDIUM 181             
1 56726U 23068S   25140.49411412  .00000371  00000+0  10428-3 0  9991
2 56726  86.4544 220.7902 0002710  83.0499 277.1010 14.43311492105796
IRIDIUM 177             
1 56727U 23068T   25140.48964780  .00000480  00000+0  59690-4 0  9998
2 56727  86.1972 155.2731 0002756  89.3429 270.8108 14.80225809108274
IRIDIUM 174             
1 56728U 23068U   25140.50343832  .00000401  00000+0  59743-4 0  9993
2 56728  86.6114 157.8515 0002025  94.9755 265.1693 14.72269042108240
IRIDIUM 178             
1 56729U 23068V   25139.66752646  .00001150  00000+0  14793-3 0  9993
2 56729  86.6589 189.7298 0002226  90.2770 269.8707 14.80233063108158
IRIDIUM 179             
1 56730U 23068W   25139.66215238  .00001151  00000+0  14797-3 0  9991
2 56730  86.6832 197.5157 0002618  96.6547 263.4973 14.80238729108158
